NORAD_CAT_ID,OBJECT_NAME,OBJECT_TYPE,EPOCH,MEAN_MOTION,ECCENTRICITY,INCLINATION,RA_OF_ASC_NODE,ARG_OF_PERICENTER,MEAN_ANOMALY,BSTAR,MEAN_MOTION_DOT,MEAN_MOTION_DDOT,TLE_LINE0,TLE_LINE1,TLE_LINE2,SEMIMAJOR_AXIS,PERIOD,APOGEE,PERIGEE,DECAYED
51858.0,STARLINK-3563,PAYLOAD,2024-02-15 16:31:14,15.08831371,0.0001897,53.2178,159.4741,97.5196,262.6012,-4.4142e-05,-9.9e-06,0.0,0 STARLINK-3563,1 51858U 22022G   24046.68835810 -.00000990  00000-0 -44142-4 0  9999,2 51858  53.2178 159.4741 0001897  97.5196 262.6012 15.08831371109341,6917.907,95.438,541.084,538.459,0.0
51858.0,STARLINK-3563,PAYLOAD,2024-02-16 11:35:51,15.08850088,0.0001744,53.2168,155.9059,86.1316,273.9875,0.00023613,3.473e-05,0.0,0 STARLINK-3563,1 51858U 22022G   24047.48323050  .00003473  00000-0  23613-3 0  9992,2 51858  53.2168 155.9059 0001744  86.1316 273.9875 15.08850088109463,6917.85,95.437,540.921,538.508,0.0
51858.0,STARLINK-3563,PAYLOAD,2024-02-16 14:46:37,15.08859617,0.0001501,53.2155,155.3091,82.819,277.2973,0.00042462,6.48e-05,0.0,0 STARLINK-3563,1 51858U 22022G   24047.61570669  .00006480  00000-0  42462-3 0  9991,2 51858  53.2155 155.3091 0001501  82.8190 277.2973 15.08859617109488,6917.82,95.436,540.724,538.647,0.0
51858.0,STARLINK-3563,PAYLOAD,2024-02-17 00:18:56,15.08843741,0.0001511,53.2165,153.526,91.7089,268.4076,0.00017128,2.439e-05,0.0,0 STARLINK-3563,1 51858U 22022G   24048.01315254  .00002439  00000-0  17128-3 0  9994,2 51858  53.2165 153.5260 0001511  91.7089 268.4076 15.08843741109548,6917.869,95.437,540.779,538.689,0.0
51858.0,STARLINK-3563,PAYLOAD,2024-02-17 11:26:39,15.08836088,0.00026,53.2161,151.4441,90.8926,269.2364,6.855e-05,8.03e-06,0.0,0 STARLINK-3563,1 51858U 22022G   24048.47684075  .00000803  00000-0  68550-4 0  9993,2 51858  53.2161 151.4441 0002600  90.8926 269.2364 15.08836088109615,6917.892,95.438,541.556,537.959,0.0
51858.0,STARLINK-3563,PAYLOAD,2024-02-17 13:02:02,15.08834402,0.0001548,53.2148,151.1479,90.6954,269.4216,2.6561e-05,1.35e-06,0.0,0 STARLINK-3563,1 51858U 22022G   24048.54307971  .00000135  00000-0  26561-4 0  9992,2 51858  53.2148 151.1479 0001548  90.6954 269.4216 15.08834402109624,6917.897,95.438,540.833,538.692,0.0
51858.0,STARLINK-3563,PAYLOAD,2024-02-17 16:12:48,15.08837071,0.0001645,53.2151,150.5537,91.9871,268.131,7.6743e-05,9.33e-06,0.0,0 STARLINK-3563,1 51858U 22022G   24048.67555896  .00000933  00000-0  76743-4 0  9990,2 51858  53.2151 150.5537 0001645  91.9871 268.1310 15.08837071109644,6917.889,95.438,540.892,538.616,0.0
51858.0,STARLINK-3563,PAYLOAD,2024-02-18 12:52:48,15.08852174,0.0001508,53.2158,146.6855,96.1588,263.9576,0.00046075,7.055e-05,0.0,0 STARLINK-3563,1 51858U 22022G   24049.53667502  .00007055  00000-0  46075-3 0  9990,2 51858  53.2158 146.6855 0001508  96.1588 263.9576 15.08852174109772,6917.843,95.437,540.751,538.665,0.0
51858.0,STARLINK-3563,PAYLOAD,2024-02-19 12:43:36,15.08841028,0.0001629,53.2166,142.2271,99.3758,260.7419,0.00017281,2.463e-05,0.0,0 STARLINK-3563,1 51858U 22022G   24050.53027978  .00002463  00000-0  17281-3 0  9994,2 51858  53.2166 142.2271 0001629  99.3758 260.7419 15.08841028109927,6917.877,95.437,540.869,538.615,0.0
51858.0,STARLINK-3563,PAYLOAD,2024-02-20 12:34:23,15.08826514,0.0001066,53.2181,137.7708,92.5515,267.5599,0.00033762,5.088e-05,0.0,0 STARLINK-3563,1 51858U 22022G   24051.52388673  .00005088  00000-0  33762-3 0  9994,2 51858  53.2181 137.7708 0001066  92.5515 267.5599 15.08826514110074,6917.922,95.438,540.524,539.049,0.0
51858.0,STARLINK-3563,PAYLOAD,2024-02-21 04:28:13,15.08881778,0.0001381,53.2178,134.7972,106.8879,253.2264,-0.00043246,-7.172e-05,0.0,0 STARLINK-3563,1 51858U 22022G   24052.18627031 -.00007172  00000-0 -43246-3 0  9997,2 51858  53.2178 134.7972 0001381 106.8879 253.2264 15.08881778110177,6917.753,95.435,540.573,538.662,0.0
51858.0,STARLINK-3563,PAYLOAD,2024-02-21 12:25:10,15.08844479,0.0001522,53.2178,133.3091,98.9276,261.1888,0.00015269,2.143e-05,0.0,0 STARLINK-3563,1 51858U 22022G   24052.51747686  .00002143  00000-0  15269-3 0  9998,2 51858  53.2178 133.3091 0001522  98.9276 261.1888 15.08844479110226,6917.867,95.437,540.785,538.679,0.0
51858.0,STARLINK-3563,PAYLOAD,2024-02-21 21:57:28,15.08841514,0.0001489,53.2165,131.5252,96.884,263.2322,0.00014036,1.947e-05,0.0,0 STARLINK-3563,1 51858U 22022G   24052.91491782  .00001947  00000-0  14036-3 0  9997,2 51858  53.2165 131.5252 0001489  96.8840 263.2322 15.08841514110286,6917.876,95.437,540.771,538.711,0.0
51858.0,STARLINK-3563,PAYLOAD,2024-02-22 10:40:35,15.08830872,0.0001724,53.2193,129.1466,96.8672,263.2516,-3.9362e-06,-3.51e-06,0.0,0 STARLINK-3563,1 51858U 22022G   24053.44485090 -.00000351  00000-0 -39362-5 0  9992,2 51858  53.2193 129.1466 0001724  96.8672 263.2516 15.08830872110361,6917.908,95.438,540.966,538.581,0.0
51858.0,STARLINK-3563,PAYLOAD,2024-02-23 12:06:44,15.08844594,0.0001462,53.2174,124.3863,85.2054,274.9105,6.4416e-05,7.37e-06,0.0,0 STARLINK-3563,1 51858U 22022G   24054.50468390  .00000737  00000-0  64416-4 0  9997,2 51858  53.2174 124.3863 0001462  85.2054 274.9105 15.08844594110520,6917.866,95.437,540.743,538.72,0.0
51858.0,STARLINK-3563,PAYLOAD,2024-02-23 21:39:03,15.08843304,0.0001514,53.2168,122.6027,84.0082,276.1083,8.7088e-05,1.098e-05,0.0,0 STARLINK-3563,1 51858U 22022G   24054.90212330  .00001098  00000-0  87088-4 0  9993,2 51858  53.2168 122.6027 0001514  84.0082 276.1083 15.08843304110585,6917.87,95.437,540.783,538.688,0.0
51858.0,STARLINK-3563,PAYLOAD,2024-02-24 11:57:31,15.0886291,0.0001561,53.216,119.9257,84.262,275.855,0.00059968,9.275e-05,0.0,0 STARLINK-3563,1 51858U 22022G   24055.49827702  .00009275  00000-0  59968-3 0  9993,2 51858  53.2160 119.9257 0001561  84.2620 275.8550 15.08862910110672,6917.81,95.436,540.755,538.595,0.0
51858.0,STARLINK-3563,PAYLOAD,2024-02-25 03:51:22,15.08850779,0.0001634,53.2159,116.9528,85.6936,274.4243,0.00019092,2.753e-05,0.0,0 STARLINK-3563,1 51858U 22022G   24056.16067885  .00002753  00000-0  19092-3 0  9994,2 51858  53.2159 116.9528 0001634  85.6936 274.4243 15.08850779110779,6917.847,95.437,540.843,538.582,0.0
51858.0,STARLINK-3563,PAYLOAD,2024-02-25 13:23:41,15.08853036,0.00016,53.2157,115.1675,90.7546,269.3629,0.00020795,3.024e-05,0.0,0 STARLINK-3563,1 51858U 22022G   24056.55811599  .00003024  00000-0  20795-3 0  9990,2 51858  53.2157 115.1675 0001600  90.7546 269.3629 15.08853036110835,6917.841,95.437,540.812,538.599,0.0
51858.0,STARLINK-3563,PAYLOAD,2024-02-26 10:03:42,15.08845293,0.000239,53.2172,111.2995,111.0524,249.0724,-0.00010834,-2.013e-05,0.0,0 STARLINK-3563,1 51858U 22022G   24057.41923798 -.00002013  00000-0 -10834-3 0  9993,2 51858  53.2172 111.2995 0002390 111.0524 249.0724 15.08845293110965,6917.864,95.437,541.383,538.076,0.0
51858.0,STARLINK-3563,PAYLOAD,2024-02-26 13:14:28,15.08851451,0.0002387,53.217,110.7014,116.1575,243.9662,-0.00020357,-3.528e-05,0.0,0 STARLINK-3563,1 51858U 22022G   24057.55171306 -.00003528  00000-0 -20357-3 0  9991,2 51858  53.2170 110.7014 0002387 116.1575 243.9662 15.08851451110986,6917.845,95.437,541.362,538.059,0.0
51858.0,STARLINK-3563,PAYLOAD,2024-02-27 09:54:29,15.08838382,0.0001644,53.2177,106.8389,97.6742,262.4437,1.141e-05,-1.06e-06,0.0,0 STARLINK-3563,1 51858U 22022G   24058.41284421 -.00000106  00000-0  11410-4 0  9999,2 51858  53.2177 106.8389 0001644  97.6742 262.4437 15.08838382111118,6917.885,95.438,540.888,538.613,0.0
51858.0,STARLINK-3563,PAYLOAD,2024-02-28 09:45:16,15.08848923,0.0001413,53.2163,102.3786,92.005,268.1104,7.4773e-05,9.03e-06,0.0,0 STARLINK-3563,1 51858U 22022G   24059.40643943  .00000903  00000-0  74773-4 0  9992,2 51858  53.2163 102.3786 0001413  92.0050 268.1104 15.08848923111262,6917.853,95.437,540.696,538.741,0.0
51858.0,STARLINK-3563,PAYLOAD,2024-02-28 19:17:35,15.08843467,0.0001514,53.2169,100.5961,96.0882,264.0283,6.3548e-05,7.24e-06,0.0,0 STARLINK-3563,1 51858U 22022G   24059.80388283  .00000724  00000-0  63548-4 0  9998,2 51858  53.2169 100.5961 0001514  96.0882 264.0283 15.08843467111320,6917.87,95.437,540.782,538.687,0.0
51858.0,STARLINK-3563,PAYLOAD,2024-02-29 03:14:31,15.08833694,0.0001675,53.2185,99.1116,95.0947,265.0237,7.9941e-05,9.84e-06,0.0,0 STARLINK-3563,1 51858U 22022G   24060.13509190  .00000984  00000-0  79941-4 0  9990,2 51858  53.2185  99.1116 0001675  95.0947 265.0237 15.08833694111378,6917.9,95.438,540.923,538.606,0.0
51858.0,STARLINK-3563,PAYLOAD,2024-02-29 09:36:04,15.08834665,0.0001678,53.2183,97.9218,94.8255,265.2929,7.725e-05,9.41e-06,0.0,0 STARLINK-3563,1 51858U 22022G   24060.40005222  .00000941  00000-0  77250-4 0  9991,2 51858  53.2183  97.9218 0001678  94.8255 265.2929 15.08834665111411,6917.897,95.438,540.923,538.601,0.0
51858.0,STARLINK-3563,PAYLOAD,2024-03-01 11:02:14,15.08840575,0.000162,53.2176,93.1631,95.2773,264.8404,3.3159e-05,2.4e-06,0.0,0 STARLINK-3563,1 51858U 22022G   24061.45989186  .00000240  00000-0  33159-4 0  9999,2 51858  53.2176  93.1631 0001620  95.2773 264.8404 15.08840575111574,6917.879,95.438,540.864,538.623,0.0
51858.0,STARLINK-3563,PAYLOAD,2024-03-01 18:59:10,15.08843426,0.0001606,53.2173,91.6756,94.2463,265.8712,2.2708e-05,7.3e-07,0.0,0 STARLINK-3563,1 51858U 22022G   24061.79109003  .00000073  00000-0  22708-4 0  9990,2 51858  53.2173  91.6756 0001606  94.2463 265.8712 15.08843426111628,6917.87,95.437,540.846,538.624,0.0
51858.0,STARLINK-3563,PAYLOAD,2024-03-02 09:17:37,15.08847473,0.0001562,53.2169,88.997,91.8806,268.2365,0.00017491,2.497e-05,0.0,0 STARLINK-3563,1 51858U 22022G   24062.38724521  .00002497  00000-0  17491-3 0  9998,2 51858  53.2169  88.9970 0001562  91.8806 268.2365 15.08847473111712,6917.858,95.437,540.803,538.642,0.0
51858.0,STARLINK-3563,PAYLOAD,2024-03-03 01:11:29,15.08840035,0.0001632,53.2176,86.0243,115.621,244.4951,5.8965e-05,6.51e-06,0.0,0 STARLINK-3563,1 51858U 22022G   24063.04965254  .00000651  00000-0  58965-4 0  9994,2 51858  53.2176  86.0243 0001632 115.6210 244.4951 15.08840035111819,6917.88,95.438,540.874,538.616,0.0
